CCSDS_OMM_VERS = 2.0
CREATION_DATE  = 
ORIGINATOR     = 

OBJECT_NAME    = YOTSUBA-KULOVER
OBJECT_ID      = 1998-067XN
CENTER_NAME    = EARTH
REF_FRAME      = TEME
TIME_SYSTEM    = UTC
MEAN_ELEMENT_THEORY = SGP/SGP4

EPOCH          = 2026-02-25T10:03:25.694496
MEAN_MOTION    = 15.75617776
ECCENTRICITY   = .0005919
INCLINATION    = 51.6226
RA_OF_ASC_NODE = 120.6913
ARG_OF_PERICENTER = 0.9597
MEAN_ANOMALY   = 359.1413

EPHEMERIS_TYPE = 0
CLASSIFICATION_TYPE = U
NORAD_CAT_ID   = 65941
ELEMENT_SET_NO = 999
REV_AT_EPOCH   = 2156
BSTAR          = .91072E-3
MEAN_MOTION_DOT = .144093E-2
MEAN_MOTION_DDOT = 0

CCSDS_OMM_VERS = 2.0
CREATION_DATE  = 
ORIGINATOR     = 

OBJECT_NAME    = BOTAN
OBJECT_ID      = 1998-067XP
CENTER_NAME    = EARTH
REF_FRAME      = TEME
TIME_SYSTEM    = UTC
MEAN_ELEMENT_THEORY = SGP/SGP4

EPOCH          = 2026-02-25T09:52:59.774016
MEAN_MOTION    = 16.02344974
ECCENTRICITY   = .0009498
INCLINATION    = 51.6130
RA_OF_ASC_NODE = 114.5304
ARG_OF_PERICENTER = 17.5648
MEAN_ANOMALY   = 342.5689

EPHEMERIS_TYPE = 0
CLASSIFICATION_TYPE = U
NORAD_CAT_ID   = 65942
ELEMENT_SET_NO = 999
REV_AT_EPOCH   = 2164
BSTAR          = .15758E-2
MEAN_MOTION_DOT = .947888E-2
MEAN_MOTION_DDOT = .46051E-3

CCSDS_OMM_VERS = 2.0
CREATION_DATE  = 
ORIGINATOR     = 

OBJECT_NAME    = E-KAGAKU-1
OBJECT_ID      = 1998-067XQ
CENTER_NAME    = EARTH
REF_FRAME      = TEME
TIME_SYSTEM    = UTC
MEAN_ELEMENT_THEORY = SGP/SGP4

EPOCH          = 2026-02-25T04:01:29.253216
MEAN_MOTION    = 15.75336584
ECCENTRICITY   = .00062016
INCLINATION    = 51.6245
RA_OF_ASC_NODE = 122.0281
ARG_OF_PERICENTER = 8.8041
MEAN_ANOMALY   = 351.3066

EPHEMERIS_TYPE = 0
CLASSIFICATION_TYPE = U
NORAD_CAT_ID   = 65943
ELEMENT_SET_NO = 999
REV_AT_EPOCH   = 2152
BSTAR          = .82234039E-3
MEAN_MOTION_DOT = .128224E-2
MEAN_MOTION_DDOT = 0

CCSDS_OMM_VERS = 2.0
CREATION_DATE  = 
ORIGINATOR     = 

OBJECT_NAME    = HRC MONOBLOCK CAMERA
OBJECT_ID      = 1998-067XR
CENTER_NAME    = EARTH
REF_FRAME      = TEME
TIME_SYSTEM    = UTC
MEAN_ELEMENT_THEORY = SGP/SGP4

EPOCH          = 2026-02-25T11:26:02.326848
MEAN_MOTION    = 15.60796546
ECCENTRICITY   = .0002998
INCLINATION    = 51.6277
RA_OF_ASC_NODE = 127.1055
ARG_OF_PERICENTER = 42.7548
MEAN_ANOMALY   = 317.3678

EPHEMERIS_TYPE = 0
CLASSIFICATION_TYPE = U
NORAD_CAT_ID   = 66052
ELEMENT_SET_NO = 999
REV_AT_EPOCH   = 2048
BSTAR          = .53351E-3
MEAN_MOTION_DOT = .45077E-3
MEAN_MOTION_DDOT = 0

CCSDS_OMM_VERS = 2.0
CREATION_DATE  = 
ORIGINATOR     = 

OBJECT_NAME    = HTV-X1
OBJECT_ID      = 2025-241A
CENTER_NAME    = EARTH
REF_FRAME      = TEME
TIME_SYSTEM    = UTC
MEAN_ELEMENT_THEORY = SGP/SGP4

EPOCH          = 2026-02-25T04:28:15.128544
MEAN_MOTION    = 15.48279367
ECCENTRICITY   = .00083561
INCLINATION    = 51.6318
RA_OF_ASC_NODE = 134.1640
ARG_OF_PERICENTER = 131.0189
MEAN_ANOMALY   = 229.1523

EPHEMERIS_TYPE = 0
CLASSIFICATION_TYPE = U
NORAD_CAT_ID   = 66174
ELEMENT_SET_NO = 999
REV_AT_EPOCH   = 51
BSTAR          = .19738534E-3
MEAN_MOTION_DOT = .10179E-3
MEAN_MOTION_DDOT = 0

CCSDS_OMM_VERS = 2.0
CREATION_DATE  = 
ORIGINATOR     = 

OBJECT_NAME    = SZ-21 MODULE
OBJECT_ID      = 2025-246C
CENTER_NAME    = EARTH
REF_FRAME      = TEME
TIME_SYSTEM    = UTC
MEAN_ELEMENT_THEORY = SGP/SGP4

EPOCH          = 2026-02-25T00:24:03.071808
MEAN_MOTION    = 15.67483837
ECCENTRICITY   = .00014733
INCLINATION    = 41.4748
RA_OF_ASC_NODE = 281.3118
ARG_OF_PERICENTER = 289.6520
MEAN_ANOMALY   = 70.4162

EPHEMERIS_TYPE = 0
CLASSIFICATION_TYPE = U
NORAD_CAT_ID   = 66515
ELEMENT_SET_NO = 999
REV_AT_EPOCH   = 1608
BSTAR          = .2755469E-3
MEAN_MOTION_DOT = .30552E-3
MEAN_MOTION_DDOT = 0

CCSDS_OMM_VERS = 2.0
CREATION_DATE  = 
ORIGINATOR     = 

OBJECT_NAME    = SHENZHOU-22
OBJECT_ID      = 2025-272A
CENTER_NAME    = EARTH
REF_FRAME      = TEME
TIME_SYSTEM    = UTC
MEAN_ELEMENT_THEORY = SGP/SGP4

EPOCH          = 2026-02-25T02:33:37.468224
MEAN_MOTION    = 15.60088863
ECCENTRICITY   = .00055932
INCLINATION    = 41.4666
RA_OF_ASC_NODE = 284.6914
ARG_OF_PERICENTER = 191.4381
MEAN_ANOMALY   = 168.6331

EPHEMERIS_TYPE = 0
CLASSIFICATION_TYPE = U
NORAD_CAT_ID   = 66645
ELEMENT_SET_NO = 999
REV_AT_EPOCH   = 26764
BSTAR          = .16633644E-3
MEAN_MOTION_DOT = .13576E-3
MEAN_MOTION_DDOT = 0

CCSDS_OMM_VERS = 2.0
CREATION_DATE  = 
ORIGINATOR     = 

OBJECT_NAME    = SOYUZ-MS 28
OBJECT_ID      = 2025-275A
CENTER_NAME    = EARTH
REF_FRAME      = TEME
TIME_SYSTEM    = UTC
MEAN_ELEMENT_THEORY = SGP/SGP4

EPOCH          = 2026-02-25T10:40:01.888320
MEAN_MOTION    = 15.48284922
ECCENTRICITY   = .0008349
INCLINATION    = 51.6319
RA_OF_ASC_NODE = 132.8882
ARG_OF_PERICENTER = 131.9822
MEAN_ANOMALY   = 228.1879

EPHEMERIS_TYPE = 0
CLASSIFICATION_TYPE = U
NORAD_CAT_ID   = 66664
ELEMENT_SET_NO = 999
REV_AT_EPOCH   = 55443
BSTAR          = .19353E-3
MEAN_MOTION_DOT = .9973E-4
MEAN_MOTION_DDOT = 0

CCSDS_OMM_VERS = 2.0
CREATION_DATE  = 
ORIGINATOR     = 

OBJECT_NAME    = DUPLEX
OBJECT_ID      = 1998-067XS
CENTER_NAME    = EARTH
REF_FRAME      = TEME
TIME_SYSTEM    = UTC
MEAN_ELEMENT_THEORY = SGP/SGP4

EPOCH          = 2026-02-25T10:42:00.842976
MEAN_MOTION    = 15.55338419
ECCENTRICITY   = .0001812
INCLINATION    = 51.6291
RA_OF_ASC_NODE = 130.6517
ARG_OF_PERICENTER = 75.2996
MEAN_ANOMALY   = 284.8196

EPHEMERIS_TYPE = 0
CLASSIFICATION_TYPE = U
NORAD_CAT_ID   = 66906
ELEMENT_SET_NO = 999
REV_AT_EPOCH   = 1322
BSTAR          = .46051E-3
MEAN_MOTION_DOT = .31507E-3
MEAN_MOTION_DDOT = 0

CCSDS_OMM_VERS = 2.0
CREATION_DATE  = 
ORIGINATOR     = 

OBJECT_NAME    = ISS OBJECT XT
OBJECT_ID      = 1998-067XT
CENTER_NAME    = EARTH
REF_FRAME      = TEME
TIME_SYSTEM    = UTC
MEAN_ELEMENT_THEORY = SGP/SGP4

EPOCH          = 2026-02-25T11:13:26.116032
MEAN_MOTION    = 15.65501529
ECCENTRICITY   = .0003935
INCLINATION    = 51.6263
RA_OF_ASC_NODE = 127.7905
ARG_OF_PERICENTER = 10.9224
MEAN_ANOMALY   = 349.1856

EPHEMERIS_TYPE = 0
CLASSIFICATION_TYPE = U
NORAD_CAT_ID   = 66907
ELEMENT_SET_NO = 999
REV_AT_EPOCH   = 1326
BSTAR          = .1098E-2
MEAN_MOTION_DOT = .113275E-2
MEAN_MOTION_DDOT = 0

CCSDS_OMM_VERS = 2.0
CREATION_DATE  = 
ORIGINATOR     = 

OBJECT_NAME    = ISS OBJECT XU
OBJECT_ID      = 1998-067XU
CENTER_NAME    = EARTH
REF_FRAME      = TEME
TIME_SYSTEM    = UTC
MEAN_ELEMENT_THEORY = SGP/SGP4

EPOCH          = 2026-02-25T11:11:52.410912
MEAN_MOTION    = 15.65570792
ECCENTRICITY   = .0004014
INCLINATION    = 51.6256
RA_OF_ASC_NODE = 127.7799
ARG_OF_PERICENTER = 13.6188
MEAN_ANOMALY   = 346.4915

EPHEMERIS_TYPE = 0
CLASSIFICATION_TYPE = U
NORAD_CAT_ID   = 66908
ELEMENT_SET_NO = 999
REV_AT_EPOCH   = 1326
BSTAR          = .10968E-2
MEAN_MOTION_DOT = .113463E-2
MEAN_MOTION_DDOT = 0

CCSDS_OMM_VERS = 2.0
CREATION_DATE  = 
ORIGINATOR     = 

OBJECT_NAME    = SILVERSAT
OBJECT_ID      = 1998-067XV
CENTER_NAME    = EARTH
REF_FRAME      = TEME
TIME_SYSTEM    = UTC
MEAN_ELEMENT_THEORY = SGP/SGP4

EPOCH          = 2026-02-25T11:40:55.603488
MEAN_MOTION    = 15.67641974
ECCENTRICITY   = .0004851
INCLINATION    = 51.6250
RA_OF_ASC_NODE = 127.1648
ARG_OF_PERICENTER = 9.1983
MEAN_ANOMALY   = 350.9101

EPHEMERIS_TYPE = 0
CLASSIFICATION_TYPE = U
NORAD_CAT_ID   = 66909
ELEMENT_SET_NO = 999
REV_AT_EPOCH   = 1327
BSTAR          = .12223E-2
MEAN_MOTION_DOT = .138005E-2
MEAN_MOTION_DDOT = 0

